0 FENGYUN 1C DEB
1 31944U 99025CMV 13282.42243035  .00000503  00000-0  31221-3 0  2583
2 31944 099.1408 349.2575 0166280 146.3348 214.8555 14.02913369333693
0 FENGYUN 1C DEB
1 31944U 99025CMV 13287.41483904  .00000726  00000-0  43830-3 0  2595
2 31944 099.1469 354.2915 0168114 132.8929 228.7540 14.02923760334399
0 FENGYUN 1C DEB
1 31944U 99025CMV 13288.98384630  .00000752  00000-0  45181-3 0  2606
2 31944 099.1539 355.8827 0170113 128.5939 233.0663 14.02926543334613
0 FENGYUN 1C DEB
1 31944U 99025CMV 13295.40255431  .00001039  00000-0  62070-3 0  2613
2 31944 099.1480 002.2819 0162979 112.4708 249.7009 14.02947139335511
